OBJECT_NAME,OBJECT_ID,EPOCH,MEAN_MOTION,ECCENTRICITY,INCLINATION,RA_OF_ASC_NODE,ARG_OF_PERICENTER,MEAN_ANOMALY,EPHEMERIS_TYPE,CLASSIFICATION_TYPE,NORAD_CAT_ID,ELEMENT_SET_NO,REV_AT_EPOCH,BSTAR,MEAN_MOTION_DOT,MEAN_MOTION_DDOT
TIGRISAT,2014-033AK,2024-01-20T13:41:06.034272,14.77779511,.0057711,97.6761,189.9960,67.8070,292.9251,0,U,40043,999,51550,.45541E-3,.331E-4,0
AISAT,2014-034B,2024-01-20T12:42:55.035360,14.86322079,.0009334,98.3521,228.2535,243.7248,116.3008,0,U,40054,999,51571,.10856E-2,.9519E-4,0
CANX-4,2014-034C,2024-01-20T11:53:07.285344,14.77367892,.0012783,98.3930,209.1099,309.1624,50.8449,0,U,40055,999,51459,.34648E-3,.241E-4,0
CANX-5,2014-034D,2024-01-20T12:01:47.087616,14.77375346,.0012793,98.3933,209.1126,309.3944,50.6131,0,U,40056,999,50540,.34547E-3,.2403E-4,0
VELOX-I,2014-034E,2024-01-20T17:47:47.262336,14.84112636,.0008319,98.3565,228.8157,263.5563,96.4703,0,U,40057,999,51567,.77275E-3,.6399E-4,0
GONETS-M 10,2014-036C,2024-01-20T13:17:58.364736,12.42907249,.0021002,82.5121,133.3870,257.2282,102.6451,0,U,40063,999,43309,.51633E-4,.17E-6,0
METEOR-M 2,2014-037A,2024-01-20T19:16:53.547456,14.20875690,.0006859,98.4303,21.7328,73.1334,287.0595,0,U,40069,999,49455,.15967E-3,.304E-5,0
DX1,2014-037C,2024-01-20T18:58:38.160480,14.83980358,.0006712,98.3428,286.5831,239.0824,120.9729,0,U,40071,999,51562,.37996E-3,.3104E-4,0
UKUBE-1,2014-037F,2024-01-20T18:16:41.785536,14.91112217,.0003504,98.3401,301.9627,178.0148,182.1083,0,U,40074,999,51664,.80097E-3,.7885E-4,0
GAOFEN-2,2014-049A,2024-01-20T19:32:15.927072,14.80782841,.0004788,97.6857,77.8365,198.1263,161.9780,0,U,40118,999,50927,.27737E-3,.2088E-4,0
BRITE-PL2 (HEWELIUSZ),2014-049B,2024-01-20T12:03:44.571744,14.87807839,.0017189,97.8811,121.0308,130.7809,229.4902,0,U,40119,999,51046,.40728E-3,.3675E-4,0
HODOYOSHI-1,2014-070B,2024-01-20T18:41:39.919200,15.40607492,.0008061,97.1652,83.3636,206.4018,153.6819,0,U,40299,999,51222,.51298E-3,.2085E-3,0
CBERS 4,2014-079A,2024-01-20T18:59:14.451936,14.35477286,.0001794,98.4199,92.8722,78.7296,281.4092,0,U,40336,999,47795,.11311E-3,.282E-5,0
SMAP,2015-003A,2024-01-20T13:59:59.417376,14.63351612,.0001404,98.1291,29.0687,97.2956,262.8406,0,U,40376,999,47912,.23539E-3,.1169E-4,0
GRIFEX,2015-003D,2024-01-20T12:00:50.006592,15.81073377,.0031297,99.0810,20.4204,217.5558,142.3519,0,U,40379,999,49714,.12921E-2,.266897E-2,0
CP10 (EXOCUBE),2015-003E,2024-01-20T11:07:01.673184,15.51059148,.0063478,99.1005,4.3446,276.8450,82.5577,0,U,40380,999,49616,.99913E-3,.63511E-3,0
GONETS-M 11,2015-020A,2024-01-20T18:43:14.138400,12.42892297,.0016761,82.4830,218.2637,118.8698,241.4066,0,U,40552,999,39965,.28107E-3,.49E-6,0
GONETS-M 12,2015-020B,2024-01-20T20:01:02.447904,12.42873589,.0015323,82.4865,219.1044,103.5141,256.7647,0,U,40553,999,39965,.23936E-3,.43E-6,0
GONETS-M 13,2015-020C,2024-01-20T17:26:18.957984,12.42902810,.0013963,82.4828,218.0690,89.5762,270.6918,0,U,40554,999,39965,-.58779E-4,.2E-7,0
DMC3-FM1,2015-032A,2024-01-20T20:09:39.134592,14.83266588,.0007161,97.7721,263.9414,64.2502,295.9451,0,U,40715,999,45958,.17859E-3,.1409E-4,0
DMC3-FM2,2015-032B,2024-01-20T19:05:59.080416,14.83267935,.0009106,97.7772,264.8710,67.1214,293.0960,0,U,40716,999,45957,.18213E-3,.1439E-4,0
DMC3-FM3,2015-032C,2024-01-20T19:37:15.338496,14.83259674,.0010572,97.7818,266.0873,63.7203,296.5096,0,U,40717,999,45958,.17888E-3,.1412E-4,0
CARBONITE 1 (CBNT-1),2015-032D,2024-01-20T17:46:24.819456,14.77616852,.0014616,97.6686,228.0594,289.6043,70.3590,0,U,40718,999,45933,.46357E-3,.3272E-4,0
DEORBITSAIL,2015-032E,2024-01-20T13:59:59.346528,14.84258660,.0012483,97.7065,248.9121,267.7548,92.2238,0,U,40719,999,46003,.10696E-2,.8928E-4,0
2015-049A,2015-049A,2024-01-20T17:07:44.059296,15.32962022,.0012078,97.4761,34.3869,115.6253,244.6238,0,U,40899,999,46184,.6656E-3,.21194E-3,0
KAITUO 1A,2015-049F,2024-01-20T19:09:10.852128,15.35729124,.0011182,97.4949,33.7957,118.8651,241.3716,0,U,40904,999,46159,.85342E-3,.29712E-3,0
2015-049G,2015-049G,2024-01-20T19:11:50.363808,15.24870499,.0013807,97.5262,28.7467,136.8991,223.3330,0,U,40905,999,46107,.42326E-3,.1048E-3,0
XW-2C,2015-049H,2024-01-20T16:59:29.490144,15.33937915,.0012023,97.4895,34.6127,108.6548,251.6000,0,U,40906,999,46165,.71736E-3,.23569E-3,0
XW-2D,2015-049J,2024-01-20T19:00:26.683200,15.37840905,.0010897,97.4857,36.0743,99.7715,260.4760,0,U,40907,999,46181,.79234E-3,.29516E-3,0
LILACSAT-2,2015-049K,2024-01-20T17:46:29.598240,15.23141094,.0014129,97.5278,28.7260,143.9242,216.2950,0,U,40908,999,46087,.38761E-3,.9108E-4,0
XW-2E,2015-049L,2024-01-20T19:11:22.128288,15.65520451,.0006741,97.4312,46.4058,64.4300,295.7656,0,U,40909,999,46282,.14201E-2,.144405E-2,0
XW-2F,2015-049M,2024-01-20T18:57:33.371712,15.64087889,.0007447,97.4417,45.6341,65.7731,294.4305,0,U,40910,999,46254,.14058E-2,.134969E-2,0
XW-2B,2015-049N,2024-01-20T19:55:08.998464,15.37438524,.0010971,97.4833,36.3858,101.0266,259.2213,0,U,40911,999,46169,.8297E-3,.30517E-3,0
KAITUO 1B,2015-049P,2024-01-20T01:00:21.070656,16.20881175,.0002358,97.3786,52.4806,238.5952,121.5107,0,U,40912,999,46344,.15637E-2,.3137908E-1,.24393E-5
COSMOS 2507,2015-050A,2024-01-20T18:45:10.348128,12.42881518,.0009949,82.4903,266.5006,101.4685,258.7513,0,U,40920,999,37776,.14736E-3,.3E-6,0
COSMOS 2508,2015-050B,2024-01-20T15:31:24.532608,12.42891280,.0014081,82.4854,265.4209,136.5467,223.6724,0,U,40921,999,37770,.15247E-3,.31E-6,0
COSMOS 2509,2015-050C,2024-01-20T14:13:19.599744,12.42891319,.0015984,82.4856,265.5357,150.8618,209.3357,0,U,40922,999,37773,.67182E-4,.19E-6,0
LAPAN-A2,2015-052B,2024-01-06T06:55:32.433312,14.77555377,.0013541,6.0004,76.3799,291.8204,68.0484,0,U,40931,999,44732,.84248E-4,.1263E-4,0
LQSAT,2015-057A,2024-01-20T19:06:12.751488,14.74361419,.001643,97.6817,48.7121,238.5075,121.4530,0,U,40958,999,44574,.19424E-3,.1242E-4,0
LINGQIAO VIDEO A,2015-057B,2024-01-20T19:54:46.098144,14.74675271,.0016338,97.6816,49.8574,238.0410,121.9212,0,U,40959,999,44582,.20899E-3,.135E-4,0
LINGQIAO VIDEO B,2015-057C,2024-01-20T19:16:43.741920,14.74791224,.0016453,97.6834,50.9342,238.5779,121.3822,0,U,40960,999,44585,.20841E-3,.135E-4,0
JILIN-1,2015-057D,2024-01-20T19:27:55.155456,14.75410141,.0016538,97.6885,53.5837,235.3220,124.6433,0,U,40961,999,44595,.21774E-3,.1434E-4,0
ELEKTRO-L 2,2015-074A,2024-01-20T09:16:31.206720,1.00271188,.0003637,4.4620,81.2680,195.1254,327.5176,0,U,41105,999,2969,0,-.116E-5,0
TELEOS-1,2015-077D,2024-01-20T14:07:07.166496,15.24755458,.0007478,14.9794,205.8212,295.8023,64.1528,0,U,41169,999,44809,.63631E-3,.17101E-3,0
VELOX-II,2015-077F,2024-01-20T13:29:29.680512,15.42164380,.0004888,14.9896,131.9104,70.8694,289.2159,0,U,41171,999,44868,.13033E-2,.59403E-3,0
DAMPE,2015-078A,2024-01-20T19:35:32.510400,15.26432238,.0011714,97.4214,15.1168,311.9766,48.0473,0,U,41173,999,45034,.97864E-4,.2479E-4,0
ORBCOMM FM114,2015-081A,2024-01-19T20:16:35.045184,14.56224588,.0001757,47.0010,192.3694,167.3482,192.7447,0,U,41179,999,42950,.43992E-3,.1797E-4,0
ORBCOMM FM110,2015-081D,2024-01-20T13:50:12.242112,14.56220989,.0001808,47.0001,188.3405,308.3219,51.7503,0,U,41182,999,42961,.44451E-3,.1817E-4,0
ORBCOMM FM112,2015-081F,2024-01-20T08:10:10.690464,14.56213359,.0001957,46.9985,98.4694,226.6811,133.3911,0,U,41184,999,43072,.48246E-3,.1986E-4,0
ORBCOMM FM113,2015-081G,2024-01-20T07:36:41.590656,14.56208625,.0001835,47.0004,98.8229,244.0247,116.0448,0,U,41185,999,43070,.46263E-3,.1898E-4,0
ORBCOMM FM108,2015-081J,2024-01-19T23:54:28.128096,14.56196714,.0001417,47.0057,11.4908,108.9781,251.1257,0,U,41187,999,43180,.45122E-3,.1846E-4,0
ORBCOMM FM117,2015-081K,2024-01-19T23:05:28.616928,14.56200872,.0001971,47.0016,10.5838,131.8777,228.2276,0,U,41188,999,43184,.45575E-3,.1866E-4,0
ORBCOMM FM116,2015-081L,2024-01-20T13:39:32.331744,14.56203861,.0003098,47.0011,97.5392,233.7157,126.3442,0,U,41189,999,43074,.51337E-3,.2124E-4,0
CHUBUSAT-2,2016-012B,2024-01-20T00:19:22.215648,15.06261289,.0011655,31.0016,269.3604,183.7784,176.2766,0,U,41338,999,43507,.42588E-3,.6504E-4,0
CHUBUSAT-3,2016-012C,2024-01-20T20:07:11.404416,15.05909889,.0011678,31.0078,261.7968,198.0848,161.9375,0,U,41339,999,43518,.39578E-3,.5993E-4,0
HORYU-4,2016-012D,2024-01-20T19:44:52.289088,15.12201804,.0010614,31.0015,219.2687,272.3252,87.6171,0,U,41340,999,43564,.6849E-3,.12246E-3,0
OUFTI-1,2016-025C,2024-01-20T14:45:53.661888,15.66532132,.0051092,98.1442,256.5793,38.2406,322.2458,0,U,41458,999,42663,.16489E-2,.187865E-2,0
E-ST@R-II,2016-025D,2024-01-20T17:49:34.113216,15.52667698,.0068343,98.1529,252.0099,51.1725,309.5599,0,U,41459,999,42636,.13805E-2,.94818E-3,0
AIST-2D (RS-48),2016-026B,2024-01-20T17:21:45.844128,15.79002605,.0006274,96.9594,255.2392,113.5914,246.6013,0,U,41465,999,43401,.51734E-3,.92223E-3,0
ZIYUAN 3-2 (ZY 3-2),2016-033A,2024-01-20T18:24:13.699008,15.21333333,.0004135,97.4728,97.4636,344.2594,15.8513,0,U,41556,999,42443,.51467E-3,.11465E-3,0
CARTOSAT-2C,2016-040A,2024-01-20T18:20:45.543264,15.19220269,.0012744,97.4091,82.2983,317.3073,42.7171,0,U,41599,999,42034,.37661E-3,.7882E-4,0
LAPAN-A3,2016-040E,2024-01-20T18:37:01.071840,15.23923305,.0010433,97.1522,41.2826,267.3812,92.6231,0,U,41603,999,42061,.17336E-3,.4127E-4,0
BIROS,2016-040F,2024-01-20T14:50:27.117024,15.34014797,.0008383,97.1417,53.6605,211.9189,148.1547,0,U,41604,999,42137,.43425E-3,.14241E-3,0
M3MSAT,2016-040G,2024-01-20T14:14:56.540544,15.33028923,.0007828,97.1416,51.0472,232.2969,127.7565,0,U,41605,999,42120,.43757E-3,.13908E-3,0
GAOFEN-3,2016-049A,2024-01-20T19:51:50.924736,14.42249306,.0001214,98.4069,30.6674,65.4192,294.7124,0,U,41727,999,39203,.74585E-4,.202E-5,0
QSS (MOZI),2016-051A,2024-01-20T18:53:59.548992,15.34472414,.0012181,97.3169,293.6893,45.1424,315.0807,0,U,41731,999,41391,.302E-3,.1003E-3,0
PRATHAM,2016-059A,2024-01-20T14:40:46.763904,14.64451154,.0033792,97.8499,46.8729,130.3226,230.0938,0,U,41783,999,39079,.2556E-3,.1318E-4,0
